CCSDS_OMM_VERS = 2.0
CREATION_DATE  = 
ORIGINATOR     = 

OBJECT_NAME    = STARLINK-36472
OBJECT_ID      = 2026-003N
CENTER_NAME    = EARTH
REF_FRAME      = TEME
TIME_SYSTEM    = UTC
MEAN_ELEMENT_THEORY = SGP/SGP4

EPOCH          = 2026-02-05T01:39:26.904960
MEAN_MOTION    = 15.50616899
ECCENTRICITY   = .00012677
INCLINATION    = 42.9995
RA_OF_ASC_NODE = 52.2757
ARG_OF_PERICENTER = 257.2498
MEAN_ANOMALY   = 102.8221

EPHEMERIS_TYPE = 0
CLASSIFICATION_TYPE = U
NORAD_CAT_ID   = 67346
ELEMENT_SET_NO = 999
REV_AT_EPOCH   = 381
BSTAR          = .19988474E-2
MEAN_MOTION_DOT = .118878E-2
MEAN_MOTION_DDOT = 0

CCSDS_OMM_VERS = 2.0
CREATION_DATE  = 
ORIGINATOR     = 

OBJECT_NAME    = STARLINK-36420
OBJECT_ID      = 2026-003P
CENTER_NAME    = EARTH
REF_FRAME      = TEME
TIME_SYSTEM    = UTC
MEAN_ELEMENT_THEORY = SGP/SGP4

EPOCH          = 2026-02-05T01:38:27.608640
MEAN_MOTION    = 15.50623702
ECCENTRICITY   = .00014599
INCLINATION    = 42.9988
RA_OF_ASC_NODE = 52.2690
ARG_OF_PERICENTER = 263.7620
MEAN_ANOMALY   = 96.3074

EPHEMERIS_TYPE = 0
CLASSIFICATION_TYPE = U
NORAD_CAT_ID   = 67347
ELEMENT_SET_NO = 999
REV_AT_EPOCH   = 382
BSTAR          = .26164596E-2
MEAN_MOTION_DOT = .15651E-2
MEAN_MOTION_DDOT = 0

CCSDS_OMM_VERS = 2.0
CREATION_DATE  = 
ORIGINATOR     = 

OBJECT_NAME    = STARLINK-36467
OBJECT_ID      = 2026-003Q
CENTER_NAME    = EARTH
REF_FRAME      = TEME
TIME_SYSTEM    = UTC
MEAN_ELEMENT_THEORY = SGP/SGP4

EPOCH          = 2026-02-05T07:49:58.935648
MEAN_MOTION    = 15.50620193
ECCENTRICITY   = .00019316
INCLINATION    = 43.0010
RA_OF_ASC_NODE = 50.7659
ARG_OF_PERICENTER = 274.1056
MEAN_ANOMALY   = 85.9583

EPHEMERIS_TYPE = 0
CLASSIFICATION_TYPE = U
NORAD_CAT_ID   = 67348
ELEMENT_SET_NO = 999
REV_AT_EPOCH   = 386
BSTAR          = .27037803E-2
MEAN_MOTION_DOT = .161837E-2
MEAN_MOTION_DDOT = 0

CCSDS_OMM_VERS = 2.0
CREATION_DATE  = 
ORIGINATOR     = 

OBJECT_NAME    = STARLINK-36457
OBJECT_ID      = 2026-003R
CENTER_NAME    = EARTH
REF_FRAME      = TEME
TIME_SYSTEM    = UTC
MEAN_ELEMENT_THEORY = SGP/SGP4

EPOCH          = 2026-02-05T01:37:58.160064
MEAN_MOTION    = 15.50641746
ECCENTRICITY   = .00004081
INCLINATION    = 42.9963
RA_OF_ASC_NODE = 52.2678
ARG_OF_PERICENTER = 234.2252
MEAN_ANOMALY   = 125.8571

EPHEMERIS_TYPE = 0
CLASSIFICATION_TYPE = U
NORAD_CAT_ID   = 67349
ELEMENT_SET_NO = 999
REV_AT_EPOCH   = 382
BSTAR          = .15583017E-2
MEAN_MOTION_DOT = .92368E-3
MEAN_MOTION_DDOT = 0

CCSDS_OMM_VERS = 2.0
CREATION_DATE  = 
ORIGINATOR     = 

OBJECT_NAME    = STARLINK-36475
OBJECT_ID      = 2026-003S
CENTER_NAME    = EARTH
REF_FRAME      = TEME
TIME_SYSTEM    = UTC
MEAN_ELEMENT_THEORY = SGP/SGP4

EPOCH          = 2026-02-05T01:37:28.370208
MEAN_MOTION    = 15.50622447
ECCENTRICITY   = .00015247
INCLINATION    = 42.9990
RA_OF_ASC_NODE = 52.2637
ARG_OF_PERICENTER = 245.7232
MEAN_ANOMALY   = 114.3469

EPHEMERIS_TYPE = 0
CLASSIFICATION_TYPE = U
NORAD_CAT_ID   = 67350
ELEMENT_SET_NO = 999
REV_AT_EPOCH   = 382
BSTAR          = .27523337E-2
MEAN_MOTION_DOT = .164825E-2
MEAN_MOTION_DDOT = 0

CCSDS_OMM_VERS = 2.0
CREATION_DATE  = 
ORIGINATOR     = 

OBJECT_NAME    = STARLINK-36478
OBJECT_ID      = 2026-003T
CENTER_NAME    = EARTH
REF_FRAME      = TEME
TIME_SYSTEM    = UTC
MEAN_ELEMENT_THEORY = SGP/SGP4

EPOCH          = 2026-02-05T07:48:00.756864
MEAN_MOTION    = 15.50607046
ECCENTRICITY   = .00015184
INCLINATION    = 43.0008
RA_OF_ASC_NODE = 50.7541
ARG_OF_PERICENTER = 267.7028
MEAN_ANOMALY   = 92.3658

EPHEMERIS_TYPE = 0
CLASSIFICATION_TYPE = U
NORAD_CAT_ID   = 67351
ELEMENT_SET_NO = 999
REV_AT_EPOCH   = 386
BSTAR          = .27350144E-2
MEAN_MOTION_DOT = .163671E-2
MEAN_MOTION_DDOT = 0

CCSDS_OMM_VERS = 2.0
CREATION_DATE  = 
ORIGINATOR     = 

OBJECT_NAME    = STARLINK-36479
OBJECT_ID      = 2026-003U
CENTER_NAME    = EARTH
REF_FRAME      = TEME
TIME_SYSTEM    = UTC
MEAN_ELEMENT_THEORY = SGP/SGP4

EPOCH          = 2026-02-05T01:36:29.131776
MEAN_MOTION    = 15.50657974
ECCENTRICITY   = .000043
INCLINATION    = 42.9967
RA_OF_ASC_NODE = 52.2584
ARG_OF_PERICENTER = 235.1681
MEAN_ANOMALY   = 124.9139

EPHEMERIS_TYPE = 0
CLASSIFICATION_TYPE = U
NORAD_CAT_ID   = 67352
ELEMENT_SET_NO = 999
REV_AT_EPOCH   = 382
BSTAR          = .1910422E-2
MEAN_MOTION_DOT = .113695E-2
MEAN_MOTION_DDOT = 0

CCSDS_OMM_VERS = 2.0
CREATION_DATE  = 
ORIGINATOR     = 

OBJECT_NAME    = STARLINK-36474
OBJECT_ID      = 2026-003V
CENTER_NAME    = EARTH
REF_FRAME      = TEME
TIME_SYSTEM    = UTC
MEAN_ELEMENT_THEORY = SGP/SGP4

EPOCH          = 2026-02-04T20:00:00.999360
MEAN_MOTION    = 15.50616681
ECCENTRICITY   = .0001188
INCLINATION    = 42.9995
RA_OF_ASC_NODE = 53.6200
ARG_OF_PERICENTER = 253.9930
MEAN_ANOMALY   = 242.1176

EPHEMERIS_TYPE = 0
CLASSIFICATION_TYPE = U
NORAD_CAT_ID   = 67353
ELEMENT_SET_NO = 999
REV_AT_EPOCH   = 539
BSTAR          = -.15471E-2
MEAN_MOTION_DOT = -.90185E-3
MEAN_MOTION_DDOT = 0

CCSDS_OMM_VERS = 2.0
CREATION_DATE  = 
ORIGINATOR     = 

OBJECT_NAME    = STARLINK-36448
OBJECT_ID      = 2026-003W
CENTER_NAME    = EARTH
REF_FRAME      = TEME
TIME_SYSTEM    = UTC
MEAN_ELEMENT_THEORY = SGP/SGP4

EPOCH          = 2026-02-05T07:45:32.540256
MEAN_MOTION    = 15.50640122
ECCENTRICITY   = .00021759
INCLINATION    = 43.0023
RA_OF_ASC_NODE = 50.7398
ARG_OF_PERICENTER = 264.8464
MEAN_ANOMALY   = 95.2148

EPHEMERIS_TYPE = 0
CLASSIFICATION_TYPE = U
NORAD_CAT_ID   = 67354
ELEMENT_SET_NO = 999
REV_AT_EPOCH   = 386
BSTAR          = .25921048E-2
MEAN_MOTION_DOT = .155115E-2
MEAN_MOTION_DDOT = 0

CCSDS_OMM_VERS = 2.0
CREATION_DATE  = 
ORIGINATOR     = 

OBJECT_NAME    = STARLINK-36477
OBJECT_ID      = 2026-003X
CENTER_NAME    = EARTH
REF_FRAME      = TEME
TIME_SYSTEM    = UTC
MEAN_ELEMENT_THEORY = SGP/SGP4

EPOCH          = 2026-02-05T06:13:46.145568
MEAN_MOTION    = 15.50630013
ECCENTRICITY   = .00013131
INCLINATION    = 42.9993
RA_OF_ASC_NODE = 51.1226
ARG_OF_PERICENTER = 269.5148
MEAN_ANOMALY   = 90.5561

EPHEMERIS_TYPE = 0
CLASSIFICATION_TYPE = U
NORAD_CAT_ID   = 67355
ELEMENT_SET_NO = 999
REV_AT_EPOCH   = 385
BSTAR          = .24089844E-2
MEAN_MOTION_DOT = .14387E-2
MEAN_MOTION_DDOT = 0

CCSDS_OMM_VERS = 2.0
CREATION_DATE  = 
ORIGINATOR     = 

OBJECT_NAME    = STARLINK-36429
OBJECT_ID      = 2026-003Y
CENTER_NAME    = EARTH
REF_FRAME      = TEME
TIME_SYSTEM    = UTC
MEAN_ELEMENT_THEORY = SGP/SGP4

EPOCH          = 2026-02-05T07:46:01.717536
MEAN_MOTION    = 15.50622001
ECCENTRICITY   = .0000806
INCLINATION    = 42.9984
RA_OF_ASC_NODE = 50.7421
ARG_OF_PERICENTER = 246.3483
MEAN_ANOMALY   = 113.7293

EPHEMERIS_TYPE = 0
CLASSIFICATION_TYPE = U
NORAD_CAT_ID   = 67356
ELEMENT_SET_NO = 999
REV_AT_EPOCH   = 386
BSTAR          = .17245895E-2
MEAN_MOTION_DOT = .10232E-2
MEAN_MOTION_DDOT = 0

CCSDS_OMM_VERS = 2.0
CREATION_DATE  = 
ORIGINATOR     = 

OBJECT_NAME    = STARLINK-36456
OBJECT_ID      = 2026-003Z
CENTER_NAME    = EARTH
REF_FRAME      = TEME
TIME_SYSTEM    = UTC
MEAN_ELEMENT_THEORY = SGP/SGP4

EPOCH          = 2026-02-05T01:34:01.036128
MEAN_MOTION    = 15.50654524
ECCENTRICITY   = .00011353
INCLINATION    = 42.9985
RA_OF_ASC_NODE = 52.2440
ARG_OF_PERICENTER = 265.8059
MEAN_ANOMALY   = 94.2671

EPHEMERIS_TYPE = 0
CLASSIFICATION_TYPE = U
NORAD_CAT_ID   = 67357
ELEMENT_SET_NO = 999
REV_AT_EPOCH   = 382
BSTAR          = .20726286E-2
MEAN_MOTION_DOT = .123518E-2
MEAN_MOTION_DDOT = 0

